$$SOE
2460154.500000000, A.D. 2023-Jul-29 00:00:00.0000, -3.634910251437774E+08, 3.532473980679022E+08, 9.951378661661747E+07,
2460161.500000000, A.D. 2023-Aug-05 00:00:00.0000, -3.704315572246056E+08, 3.473051332186437E+08, 1.010643821272257E+08,
2460168.500000000, A.D. 2023-Aug-12 00:00:00.0000, -3.772425601736565E+08, 3.412413580491734E+08, 1.025796247789371E+08,
2460175.500000000, A.D. 2023-Aug-19 00:00:00.0000, -3.839225537704761E+08, 3.350590057846428E+08, 1.040592293587510E+08,
2460182.500000000, A.D. 2023-Aug-26 00:00:00.0000, -3.904701126323861E+08, 3.287610015396434E+08, 1.055029240429520E+08,
2460189.500000000, A.D. 2023-Sep-02 00:00:00.0000, -3.968838649047374E+08, 3.223502618246002E+08, 1.069104500553874E+08,
2460196.500000000, A.D. 2023-Sep-09 00:00:00.0000, -4.031624909682078E+08, 3.158296939904076E+08, 1.082815613233351E+08,
2460203.500000000, A.D. 2023-Sep-16 00:00:00.0000, -4.093047219950247E+08, 3.092021955507083E+08, 1.096160241108168E+08,
2460210.500000000, A.D. 2023-Sep-23 00:00:00.0000, -4.153093379378793E+08, 3.024706536660008E+08, 1.109136166146177E+08,
2460217.500000000, A.D. 2023-Sep-30 00:00:00.0000, -4.211751652914774E+08, 2.956379459777084E+08, 1.121741286515364E+08,
2460224.500000000, A.D. 2023-Oct-07 00:00:00.0000, -4.269010769814036E+08, 2.887069422474174E+08, 1.133973616087239E+08,
2460231.500000000, A.D. 2023-Oct-14 00:00:00.0000, -4.324859933405226E+08, 2.816805034868969E+08, 1.145831282912977E+08,
2460238.500000000, A.D. 2023-Oct-21 00:00:00.0000, -4.379288809429525E+08, 2.745614801791484E+08, 1.157312525018395E+08,
2460245.500000000, A.D. 2023-Oct-28 00:00:00.0000, -4.432287507200062E+08, 2.673527118474880E+08, 1.168415686670971E+08,
2460252.500000000, A.D. 2023-Nov-04 00:00:00.0000, -4.483846566091999E+08, 2.600570272005947E+08, 1.179139215640961E+08,
2460259.500000000, A.D. 2023-Nov-11 00:00:00.0000, -4.533956945590060E+08, 2.526772442524701E+08, 1.189481660807727E+08,
2460266.500000000, A.D. 2023-Nov-18 00:00:00.0000, -4.582610016696047E+08, 2.452161703515585E+08, 1.199441669859790E+08,
2460273.500000000, A.D. 2023-Nov-25 00:00:00.0000, -4.629797553964973E+08, 2.376766021401113E+08, 1.209017987041880E+08,
2460280.500000000, A.D. 2023-Dec-02 00:00:00.0000, -4.675511727883405E+08, 2.300613254312494E+08, 1.218209450914623E+08,
2460287.500000000, A.D. 2023-Dec-09 00:00:00.0000, -4.719745096803959E+08, 2.223731149434856E+08, 1.227014992005923E+08,
2460294.500000000, A.D. 2023-Dec-16 00:00:00.0000, -4.762490595549461E+08, 2.146147339037173E+08, 1.235433630096648E+08,
2460301.500000000, A.D. 2023-Dec-23 00:00:00.0000, -4.803741517190763E+08, 2.067889342041050E+08, 1.243464471376856E+08,
2460308.500000000, A.D. 2023-Dec-30 00:00:00.0000, -4.843491501396618E+08, 1.988984581597209E+08, 1.251106707554530E+08,
2460315.500000000, A.D. 2024-Jan-06 00:00:00.0000, -4.881734547089212E+08, 1.909460395045277E+08, 1.258359616613475E+08,
2460322.500000000, A.D. 2024-Jan-13 00:00:00.0000, -4.918465017682098E+08, 1.829344018181613E+08, 1.265222560834516E+08,
2460329.500000000, A.D. 2024-Jan-20 00:00:00.0000, -4.953677626657420E+08, 1.748662574669724E+08, 1.271694983474817E+08,
2460336.500000000, A.D. 2024-Jan-27 00:00:00.0000, -4.987367423771432E+08, 1.667443077101481E+08, 1.277776406497081E+08,
2460343.500000000, A.D. 2024-Feb-03 00:00:00.0000, -5.019529786177889E+08, 1.585712430218526E+08, 1.283466428966861E+08,
2460350.500000000, A.D. 2024-Feb-10 00:00:00.0000, -5.050160411693024E+08, 1.503497433380764E+08, 1.288764725623855E+08,
2460357.500000000, A.D. 2024-Feb-17 00:00:00.0000, -5.079255312806999E+08, 1.420824782355617E+08, 1.293671045502430E+08,
2460364.500000000, A.D. 2024-Feb-24 00:00:00.0000, -5.106810811073799E+08, 1.337721070567582E+08, 1.298185210575807E+08,
2460371.500000000, A.D. 2024-Mar-02 00:00:00.0000, -5.132823531577955E+08, 1.254212789473523E+08, 1.302307114365959E+08,
2460378.500000000, A.D. 2024-Mar-09 00:00:00.0000, -5.157290396082535E+08, 1.170326327425283E+08, 1.306036720336346E+08,
2460385.500000000, A.D. 2024-Mar-16 00:00:00.0000, -5.180208610897946E+08, 1.086087968981808E+08, 1.309374059862218E+08,
2460392.500000000, A.D. 2024-Mar-23 00:00:00.0000, -5.201575650500656E+08, 1.001523905749220E+08, 1.312319230776298E+08,
2460399.500000000, A.D. 2024-Mar-30 00:00:00.0000, -5.221389259312809E+08, 9.166602584676287E+07, 1.314872398522444E+08,
2460406.500000000, A.D. 2024-Apr-06 00:00:00.0000, -5.239647469089414E+08, 8.315230766614211E+07, 1.317033796933125E+08,
2460413.500000000, A.D. 2024-Apr-13 00:00:00.0000, -5.256348596399289E+08, 7.461383242171818E+07, 1.318803726057907E+08,
2460420.500000000, A.D. 2024-Apr-20 00:00:00.0000, -5.271491229709354E+08, 6.605318776483252E+07, 1.320182550100329E+08,
2460427.500000000, A.D. 2024-Apr-27 00:00:00.0000, -5.285074221240870E+08, 5.747295314208341E+07, 1.321170696395365E+08,
2460434.500000000, A.D. 2024-May-04 00:00:00.0000, -5.297096682722974E+08, 4.887570033013792E+07, 1.321768654774603E+08,
2460441.500000000, A.D. 2024-May-11 00:00:00.0000, -5.307557982660664E+08, 4.026399387096947E+07, 1.321976977019267E+08,
2460448.500000000, A.D. 2024-May-18 00:00:00.0000, -5.316457744294357E+08, 3.164039142912706E+07, 1.321796276344295E+08,
2460455.500000000, A.D. 2024-May-25 00:00:00.0000, -5.323795844000123E+08, 2.300744406380850E+07, 1.321227226885582E+08,
2460462.500000000, A.D. 2024-Jun-01 00:00:00.0000, -5.329572409528750E+08, 1.436769635815416E+07, 1.320270563089518E+08,
2460469.500000000, A.D. 2024-Jun-08 00:00:00.0000, -5.333787815616875E+08, 5.723686382630907E+06, 1.318927078761401E+08,
2460476.500000000, A.D. 2024-Jun-15 00:00:00.0000, -5.336442672971005E+08, -2.922053962638222E+06, 1.317197625852945E+08,
2460483.500000000, A.D. 2024-Jun-22 00:00:00.0000, -5.337537820672565E+08, -1.156699705191515E+07, 1.315083114872310E+08,
2460490.500000000, A.D. 2024-Jun-29 00:00:00.0000, -5.337074343222521E+08, -2.020861790577971E+07, 1.312584517377751E+08,
2460497.500000000, A.D. 2024-Jul-06 00:00:00.0000, -5.335053585783688E+08, -2.884439530227897E+07, 1.309702866114856E+08,
2460504.500000000, A.D. 2024-Jul-13 00:00:00.0000, -5.331477148125919E+08, -3.747181280286328E+07, 1.306439253318992E+08,
2460511.500000000, A.D. 2024-Jul-20 00:00:00.0000, -5.326346877121928E+08, -4.608835854476540E+07, 1.302794829940757E+08,
2460518.500000000, A.D. 2024-Jul-27 00:00:00.0000, -5.319664864353217E+08, -5.469152476003063E+07, 1.298770805611537E+08,
2460525.500000000, A.D. 2024-Aug-03 00:00:00.0000, -5.311433446100622E+08, -6.327880739636498E+07, 1.294368448793034E+08,
2460532.500000000, A.D. 2024-Aug-10 00:00:00.0000, -5.301655204061323E+08, -7.184770584396192E+07, 1.289589086953329E+08,
2460539.500000000, A.D. 2024-Aug-17 00:00:00.0000, -5.290332966312976E+08, -8.039572274624723E+07, 1.284434106739181E+08,
2460546.500000000, A.D. 2024-Aug-24 00:00:00.0000, -5.277469808237959E+08, -8.892036391677672E+07, 1.278904954094641E+08,
2460553.500000000, A.D. 2024-Aug-31 00:00:00.0000, -5.263069052244502E+08, -9.741913842418441E+07, 1.273003134164184E+08,
2460560.500000000, A.D. 2024-Sep-07 00:00:00.0000, -5.247134262627253E+08, -1.058895587194835E+08, 1.266730210745046E+08,
2460567.500000000, A.D. 2024-Sep-14 00:00:00.0000, -5.229669234716285E+08, -1.143291398104980E+08, 1.260087806023109E+08,
2460574.500000000, A.D. 2024-Sep-21 00:00:00.0000, -5.210677998607011E+08, -1.227353970714759E+08, 1.253077602790231E+08,
2460581.500000000, A.D. 2024-Sep-28 00:00:00.0000, -5.190164842356530E+08, -1.311058459161573E+08, 1.245701346954729E+08,
2460588.500000000, A.D. 2024-Oct-05 00:00:00.0000, -5.168134317961332E+08, -1.394380033324924E+08, 1.237960846983438E+08,
2460595.500000000, A.D. 2024-Oct-12 00:00:00.0000, -5.144591233720915E+08, -1.477293882982408E+08, 1.229857973039780E+08,
2460602.500000000, A.D. 2024-Oct-19 00:00:00.0000, -5.119540650488145E+08, -1.559775213482722E+08, 1.221394657198259E+08,
2460609.500000000, A.D. 2024-Oct-26 00:00:00.0000, -5.092987882126939E+08, -1.641799240955527E+08, 1.212572894108319E+08,
2460616.500000000, A.D. 2024-Nov-02 00:00:00.0000, -5.064938497605058E+08, -1.723341188546700E+08, 1.203394741750811E+08,
2460623.500000000, A.D. 2024-Nov-09 00:00:00.0000, -5.035398323756835E+08, -1.804376283474027E+08, 1.193862322216215E+08,
2460630.500000000, A.D. 2024-Nov-16 00:00:00.0000, -5.004373448455901E+08, -1.884879754902027E+08, 1.183977822481588E+08,
2460637.500000000, A.D. 2024-Nov-23 00:00:00.0000, -4.971870223727382E+08, -1.964826833136914E+08, 1.173743495102830E+08,
2460644.500000000, A.D. 2024-Nov-30 00:00:00.0000, -4.937895266715278E+08, -2.044192750570560E+08, 1.163161658596973E+08,
2460651.500000000, A.D. 2024-Dec-07 00:00:00.0000, -4.902455454309417E+08, -2.122952740169876E+08, 1.152234697474173E+08,
2460658.500000000, A.D. 2024-Dec-14 00:00:00.0000, -4.865557918315335E+08, -2.201082019274989E+08, 1.140965063551438E+08,
2460665.500000000, A.D. 2024-Dec-21 00:00:00.0000, -4.827210064349890E+08, -2.278555771121132E+08, 1.129355279661302E+08,
2460672.500000000, A.D. 2024-Dec-28 00:00:00.0000, -4.787419594743431E+08, -2.355349153768762E+08, 1.117407941525084E+08,
2460679.500000000, A.D. 2025-Jan-04 00:00:00.0000, -4.746194509484044E+08, -2.431437312685046E+08, 1.105125717355165E+08,
2460686.500000000, A.D. 2025-Jan-11 00:00:00.0000, -4.703543103414448E+08, -2.506795380378423E+08, 1.092511348214634E+08,
2460693.500000000, A.D. 2025-Jan-18 00:00:00.0000, -4.659473968844613E+08, -2.581398472279538E+08, 1.079567649224714E+08,
2460700.500000000, A.D. 2025-Jan-25 00:00:00.0000, -4.613996001143008E+08, -2.655221683624803E+08, 1.066297511010932E+08,
2460707.500000000, A.D. 2025-Feb-01 00:00:00.0000, -4.567118405413521E+08, -2.728240087655144E+08, 1.052703901193353E+08,
2460714.500000000, A.D. 2025-Feb-08 00:00:00.0000, -4.518850703676982E+08, -2.800428734942852E+08, 1.038789865887102E+08,
2460721.500000000, A.D. 2025-Feb-15 00:00:00.0000, -4.469202742271224E+08, -2.871762654055527E+08, 1.024558531173308E+08,
$$EOE